CCSDS_OEM_VERS = 1.0
CREATION_DATE  = 2017-05-11T11:34:06
ORIGINATOR     = GMAT USER

META_START
OBJECT_NAME          = MOPSSat_alt_35785_km_RAAN_180_052
OBJECT_ID            = SatId
CENTER_NAME          = Earth
REF_FRAME            = EME2000
TIME_SYSTEM          = UTC
START_TIME           = 2017-01-01T00:00:00.000
USEABLE_START_TIME   = 2017-01-01T00:00:00.000
USEABLE_STOP_TIME    = 2017-01-02T00:00:00.000
STOP_TIME            = 2017-01-02T00:00:00.000
INTERPOLATION        = Lagrange
INTERPOLATION_DEGREE = 7 
META_STOP


                                                                                   

2017-01-01T17:25:00.000   5.879460571675862e+03   4.111797941484606e+04  -7.251499047811476e+03  -3.044597781903408e+00   4.222344563258794e-01  -7.424936683097839e-02
2017-01-01T17:25:10.000   5.849013032624480e+03   4.112219082682749e+04  -7.252239613094443e+03  -3.044909665704303e+00   4.200478898324598e-01  -7.386368094347461e-02
2017-01-01T17:25:20.000   5.818562382764886e+03   4.112638037203511e+04  -7.252976321323417e+03  -3.045219930367266e+00   4.178610999851802e-01  -7.347795575452738e-02
2017-01-01T17:25:30.000   5.788108638426950e+03   4.113054804822234e+04  -7.253709172103091e+03  -3.045528575725871e+00   4.156740879565817e-01  -7.309219147099832e-02
2017-01-01T17:25:40.000   5.757651815944701e+03   4.113469385315389e+04  -7.254438165040155e+03  -3.045835601614535e+00   4.134868549195053e-01  -7.270638829980174e-02
2017-01-01T17:25:50.000   5.727191931547519e+03   4.113881778462141e+04  -7.255163299746037e+03  -3.046141007869666e+00   4.112994020392761e-01  -7.232054644652637e-02
2017-01-01T17:26:00.000   5.696729001432604e+03   4.114291984043265e+04  -7.255884575835010e+03  -3.046444794328864e+00   4.091117304789081e-01  -7.193466611635317e-02
2017-01-01T17:26:10.000   5.666263041764986e+03   4.114700001841163e+04  -7.256601992924212e+03  -3.046746960830936e+00   4.069238413991065e-01  -7.154874751405581e-02
2017-01-01T17:26:20.000   5.635794068604789e+03   4.115105831640759e+04  -7.257315550635219e+03  -3.047047507216554e+00   4.047357359530413e-01  -7.116279084307878e-02
2017-01-01T17:26:30.000   5.605322098016234e+03   4.115509473228100e+04  -7.258025248591590e+03  -3.047346433327220e+00   4.025474152941781e-01  -7.077679630691866e-02
2017-01-01T17:26:40.000   5.574847146078660e+03   4.115910926390223e+04  -7.258731086418639e+03  -3.047643739005173e+00   4.003588805770678e-01  -7.039076410926340e-02
2017-01-01T17:26:50.000   5.544369228916668e+03   4.116310190914631e+04  -7.259433063742490e+03  -3.047939424092993e+00   3.981701329595124e-01  -7.000469445437452e-02
2017-01-01T17:27:00.000   5.513888362724717e+03   4.116707266589121e+04  -7.260131180189807e+03  -3.048233488433479e+00   3.959811736043299e-01  -6.961858754739805e-02
2017-01-01T17:27:10.000   5.483404563677359e+03   4.117102153202899e+04  -7.260825435389727e+03  -3.048525931870474e+00   3.937920036729101e-01  -6.923244359322817e-02
2017-01-01T17:27:20.000   5.452917848331195e+03   4.117494850541585e+04  -7.261515828965102e+03  -3.048816754245165e+00   3.916026243540787e-01  -6.884626280159833e-02
2017-01-01T17:27:30.000   5.422428233137847e+03   4.117885358393313e+04  -7.262202360543191e+03  -3.049105955400595e+00   3.894130368291227e-01  -6.846004538091228e-02
2017-01-01T17:27:40.000   5.391935734625023e+03   4.118273676546432e+04  -7.262885029751662e+03  -3.049393535179972e+00   3.872232422847930e-01  -6.807379154053737e-02
2017-01-01T17:27:50.000   5.361440368695122e+03   4.118659804798469e+04  -7.263563836234309e+03  -3.049679493433299e+00   3.850332418629359e-01  -6.768750148192035e-02
2017-01-01T17:28:00.000   5.330942151324823e+03   4.119043742947171e+04  -7.264238779635329e+03  -3.049963830010742e+00   3.828430367107308e-01  -6.730117540744865e-02
2017-01-01T17:28:10.000   5.300441098406602e+03   4.119425490792582e+04  -7.264909859602957e+03  -3.050246544764165e+00   3.806526279693110e-01  -6.691481351844304e-02
2017-01-01T17:28:20.000   5.269937226143355e+03   4.119805048131783e+04  -7.265577075780236e+03  -3.050527637543244e+00   3.784620168021021e-01  -6.652841602015652e-02
2017-01-01T17:28:30.000   5.239430550755517e+03   4.120182414762895e+04  -7.266240427812023e+03  -3.050807108198411e+00   3.762712043737902e-01  -6.614198311806431e-02
2017-01-01T17:28:40.000   5.208921088480899e+03   4.120557590484930e+04  -7.266899915344777e+03  -3.051084956580774e+00   3.740801918503086e-01  -6.575551501786157e-02
2017-01-01T17:28:50.000   5.178408855868405e+03   4.120930575094497e+04  -7.267555538020721e+03  -3.051361182539649e+00   3.718889804199320e-01  -6.536901192918411e-02
2017-01-01T17:29:00.000   5.147893869382540e+03   4.121301368390375e+04  -7.268207295485906e+03  -3.051635785925966e+00   3.696975712648744e-01  -6.498247406059877e-02
2017-01-01T17:29:10.000   5.117376145559151e+03   4.121669970171668e+04  -7.268855187386968e+03  -3.051908766590893e+00   3.675059655724728e-01  -6.459590162157591e-02
2017-01-01T17:29:20.000   5.086855700316753e+03   4.122036380246150e+04  -7.269499213385783e+03  -3.052180124392016e+00   3.653141644857322e-01  -6.420929481376621e-02
2017-01-01T17:29:30.000   5.056332549645169e+03   4.122400598421898e+04  -7.270139373144760e+03  -3.052449859187147e+00   3.631221691527774e-01  -6.382265383972338e-02
2017-01-01T17:29:40.000   5.025806709449859e+03   4.122762624509227e+04  -7.270775666330271e+03  -3.052717970835754e+00   3.609299807156759e-01  -6.343597890093274e-02
2017-01-01T17:29:50.000   4.995278195946901e+03   4.123122458315700e+04  -7.271408092603831e+03  -3.052984459195270e+00   3.587376003388018e-01  -6.304927020281405e-02
2017-01-01T17:30:00.000   4.964747025369844e+03   4.123480099649913e+04  -7.272036651628806e+03  -3.053249324123889e+00   3.565450291877837e-01  -6.266252795100842e-02
2017-01-01T17:30:10.000   4.934213213969547e+03   4.123835548321383e+04  -7.272661343070163e+03  -3.053512565480487e+00   3.543522684294942e-01  -6.227575235137622e-02
2017-01-01T17:30:20.000   4.903676778308120e+03   4.124188804137418e+04  -7.273282166589012e+03  -3.053774183122304e+00   3.521593192531582e-01  -6.188894361372047e-02
2017-01-01T17:30:30.000   4.873137734863130e+03   4.124539866907438e+04  -7.273899121850177e+03  -3.054034176908147e+00   3.499661828419286e-01  -6.150210194677323e-02
2017-01-01T17:30:40.000   4.842596100186425e+03   4.124888736441210e+04  -7.274512208519102e+03  -3.054292546697075e+00   3.477728603842936e-01  -6.111522756020746e-02
2017-01-01T17:30:50.000   4.812051890203368e+03   4.125235412556854e+04  -7.275121426275910e+03  -3.054549292354333e+00   3.455793530237513e-01  -6.072832065576037e-02
2017-01-01T17:31:00.000   4.781505120915343e+03   4.125579895072796e+04  -7.275726774801286e+03  -3.054804413745396e+00   3.433856619092585e-01  -6.034138143613214e-02
2017-01-01T17:31:10.000   4.750955808218417e+03   4.125922183809867e+04  -7.276328253780125e+03  -3.055057910737515e+00   3.411917881822099e-01  -5.995441010268886e-02
2017-01-01T17:31:20.000   4.720403968390844e+03   4.126262278585578e+04  -7.276925862891524e+03  -3.055309783195490e+00   3.389977330114463e-01  -5.956740686163776e-02
2017-01-01T17:31:30.000   4.689849617690805e+03   4.126600179218898e+04  -7.277519601817135e+03  -3.055560030985187e+00   3.368034975643667e-01  -5.918037191893189e-02
2017-01-01T17:31:40.000   4.659292772449126e+03   4.126935885529134e+04  -7.278109470239206e+03  -3.055808653972734e+00   3.346090830135884e-01  -5.879330548144442e-02
2017-01-01T17:31:50.000   4.628733449033490e+03   4.127269397336485e+04  -7.278695467841571e+03  -3.056055652024916e+00   3.324144905343746e-01  -5.840620775651539e-02
2017-01-01T17:32:00.000   4.598171663831170e+03   4.127600714462117e+04  -7.279277594309769e+03  -3.056301025009231e+00   3.302197213033959e-01  -5.801907895173292e-02
2017-01-01T17:32:10.000   4.567607433212452e+03   4.127929836728548e+04  -7.279855849331722e+03  -3.056544772794179e+00   3.280247764961040e-01  -5.763191927447011e-02
2017-01-01T17:32:20.000   4.537040773513667e+03   4.128256763959969e+04  -7.280430232598304e+03  -3.056786895249497e+00   3.258296572855110e-01  -5.724472893166967e-02
2017-01-01T17:32:30.000   4.506471701001018e+03   4.128581495982470e+04  -7.281000743803722e+03  -3.057027392246334e+00   3.236343648395937e-01  -5.685750812938620e-02
2017-01-01T17:32:40.000   4.475900231963513e+03   4.128904032623115e+04  -7.281567382643925e+03  -3.057266263656555e+00   3.214389003279667e-01  -5.647025707396306e-02
2017-01-01T17:32:50.000   4.445326382309886e+03   4.129224373713986e+04  -7.282130148823663e+03  -3.057503509355742e+00   3.192432648929361e-01  -5.608297596692670e-02
2017-01-01T17:33:00.000   4.414750168056983e+03   4.129542519087240e+04  -7.282689042047831e+03  -3.057739129219528e+00   3.170474596845715e-01  -5.569566501117294e-02
2017-01-01T17:33:10.000   4.384171605145184e+03   4.129858468576990e+04  -7.283244062024784e+03  -3.057973123125004e+00   3.148514858474519e-01  -5.530832440862903e-02
2017-01-01T17:33:20.000   4.353590710153332e+03   4.130172222011912e+04  -7.283795208453322e+03  -3.058205490945229e+00   3.126553445720064e-01  -5.492095436930966e-02
2017-01-01T17:33:30.000   4.323007499583801e+03   4.130483779222672e+04  -7.284342481035748e+03  -3.058436232554729e+00   3.104590370431740e-01  -5.453355510226089e-02
2017-01-01T17:33:40.000   4.292421990047013e+03   4.130793140039971e+04  -7.284885879474442e+03  -3.058665347828066e+00   3.082625644536519e-01  -5.414612681789734e-02
2017-01-01T17:33:50.000   4.261834197773300e+03   4.131100304299754e+04  -7.285425403480996e+03  -3.058892836643677e+00   3.060659279688426e-01  -5.375866972181912e-02
2017-01-01T17:34:00.000   4.231244139015658e+03   4.131405271838864e+04  -7.285961052768607e+03  -3.059118698880672e+00   3.038691287557759e-01  -5.337118401991328e-02
